[{"OBJECT_NAME":"SSTL S1-4","OBJECT_ID":"2018-071A","EPOCH":"2026-03-09T21:46:24.134592","MEAN_MOTION":14.9621182,"ECCENTRICITY":0.00016592,"INCLINATION":97.5174,"RA_OF_ASC_NODE":304.5632,"ARG_OF_PERICENTER":109.6935,"MEAN_ANOMALY":250.4466,"EPHEMERIS_TYPE":0,"CLASSIFICATION_TYPE":"U","NORAD_CAT_ID":43618,"ELEMENT_SET_NO":999,"REV_AT_EPOCH":40809,"BSTAR":0.00013252792,"MEAN_MOTION_DOT":1.44e-5,"MEAN_MOTION_DDOT":0},{"OBJECT_NAME":"STARLINK-36056","OBJECT_ID":"2025-304Q","EPOCH":"2026-03-09T17:00:20.625120","MEAN_MOTION":14.98335753,"ECCENTRICITY":0.00031565,"INCLINATION":70.0025,"RA_OF_ASC_NODE":174.5619,"ARG_OF_PERICENTER":259.5658,"MEAN_ANOMALY":100.5145,"EPHEMERIS_TYPE":0,"CLASSIFICATION_TYPE":"U","NORAD_CAT_ID":67206,"ELEMENT_SET_NO":999,"REV_AT_EPOCH":1385,"BSTAR":0.00033379983,"MEAN_MOTION_DOT":3.893e-5,"MEAN_MOTION_DDOT":0}]
